NORAD_CAT_ID,OBJECT_NAME,OBJECT_TYPE,EPOCH,MEAN_MOTION,ECCENTRICITY,INCLINATION,RA_OF_ASC_NODE,ARG_OF_PERICENTER,MEAN_ANOMALY,BSTAR,MEAN_MOTION_DOT,MEAN_MOTION_DDOT,TLE_LINE0,TLE_LINE1,TLE_LINE2,SEMIMAJOR_AXIS,PERIOD,APOGEE,PERIGEE,DECAYED
55421.0,STARLINK-5598,PAYLOAD,2024-05-18 12:10:54,14.98337841,0.0003296,69.9994,308.9902,280.7135,79.3653,-7.4147e-05,-9.78e-06,0.0,0 STARLINK-5598,1 55421U 23014AG  24139.50757496 -.00000978  00000-0 -74147-4 0  9992,2 55421  69.9994 308.9902 0003296 280.7135  79.3653 14.98337841 72675,6950.169,96.106,574.324,569.743,0.0
55421.0,STARLINK-5598,PAYLOAD,2024-05-18 13:47:02,14.98336347,0.0003344,69.9986,308.822,279.8045,80.2737,-3.8836e-05,-5.57e-06,0.0,0 STARLINK-5598,1 55421U 23014AG  24139.57433442 -.00000557  00000-0 -38836-4 0  9999,2 55421  69.9986 308.8220 0003344 279.8045  80.2737 14.98336347 72686,6950.173,96.107,574.362,569.714,0.0
55421.0,STARLINK-5598,PAYLOAD,2024-05-18 20:11:33,14.98347498,0.0003238,69.999,308.1513,279.026,81.0533,9.5379e-05,1.046e-05,0.0,0 STARLINK-5598,1 55421U 23014AG  24139.84136162  .00001046  00000-0  95379-4 0  9995,2 55421  69.9990 308.1513 0003238 279.0260  81.0533 14.98347498 72729,6950.139,96.106,574.254,569.753,0.0
55421.0,STARLINK-5598,PAYLOAD,2024-05-18 21:47:40,14.98383521,0.0003641,69.9989,307.9822,281.506,78.569,-0.00047325,-5.743e-05,0.0,0 STARLINK-5598,1 55421U 23014AG  24139.90811069 -.00005743  00000-0 -47325-3 0  9995,2 55421  69.9989 307.9822 0003641 281.5060  78.5690 14.98383521 72734,6950.027,96.104,574.423,569.362,0.0
55421.0,STARLINK-5598,PAYLOAD,2024-05-19 04:12:14,14.98333878,0.0003716,69.9991,307.3071,279.2313,80.8425,0.00010174,1.121e-05,0.0,0 STARLINK-5598,1 55421U 23014AG  24140.17516658  .00001121  00000-0  10174-3 0  9998,2 55421  69.9991 307.3071 0003716 279.2313  80.8425 14.98333878 72771,6950.181,96.107,574.629,569.463,0.0
55421.0,STARLINK-5598,PAYLOAD,2024-05-19 13:49:04,14.98317182,0.0002732,70.0011,306.304,259.1745,100.9107,2.6928e-08,-9.3e-07,0.0,0 STARLINK-5598,1 55421U 23014AG  24140.57574360 -.00000093  00000-0  26928-7 0  9992,2 55421  70.0011 306.3040 0002732 259.1745 100.9107 14.98317182 72833,6950.233,96.108,573.996,570.199,0.0
55421.0,STARLINK-5598,PAYLOAD,2024-05-20 12:14:56,14.98336353,0.0003357,69.9991,303.9451,267.4215,92.6559,-0.00012932,-1.636e-05,0.0,0 STARLINK-5598,1 55421U 23014AG  24141.51037729 -.00001636  00000-0 -12932-3 0  9991,2 55421  69.9991 303.9451 0003357 267.4215  92.6559 14.98336353 72978,6950.173,96.107,574.371,569.705,0.0
55421.0,STARLINK-5598,PAYLOAD,2024-05-20 13:51:04,14.98336851,0.0003249,69.9993,303.7763,268.041,92.0377,-0.00011241,-1.434e-05,0.0,0 STARLINK-5598,1 55421U 23014AG  24141.57713647 -.00001434  00000-0 -11241-3 0  9995,2 55421  69.9993 303.7763 0003249 268.0410  92.0377 14.98336851 72984,6950.172,96.107,574.295,569.779,0.0
55421.0,STARLINK-5598,PAYLOAD,2024-05-20 20:15:36,14.98343867,0.0003052,69.9999,303.1038,263.6074,96.4738,-2.1583e-05,-3.51e-06,0.0,0 STARLINK-5598,1 55421U 23014AG  24141.84416773 -.00000351  00000-0 -21583-4 0  9993,2 55421  69.9999 303.1038 0003052 263.6074  96.4738 14.98343867 73028,6950.15,96.106,574.136,569.894,0.0
55421.0,STARLINK-5598,PAYLOAD,2024-05-21 12:16:57,14.98322596,0.0002899,70.0004,301.4207,262.0375,98.0455,0.00013983,1.576e-05,0.0,0 STARLINK-5598,1 55421U 23014AG  24142.51177469  .00001576  00000-0  13983-3 0  9996,2 55421  70.0004 301.4207 0002899 262.0375  98.0455 14.98322596 73123,6950.216,96.107,574.096,570.066,0.0
55421.0,STARLINK-5598,PAYLOAD,2024-05-21 13:53:05,14.98322172,0.0002956,70.0002,301.2524,261.4932,98.5892,0.0001439,1.624e-05,0.0,0 STARLINK-5598,1 55421U 23014AG  24142.57853575  .00001624  00000-0  14390-3 0  9998,2 55421  70.0002 301.2524 0002956 261.4932  98.5892 14.98322172 73138,6950.217,96.108,574.137,570.028,0.0
55421.0,STARLINK-5598,PAYLOAD,2024-05-21 20:17:37,14.98323883,0.0002781,70.0005,300.5791,257.3393,102.7456,0.00012787,1.433e-05,0.0,0 STARLINK-5598,1 55421U 23014AG  24142.84557588  .00001433  00000-0  12787-3 0  9999,2 55421  70.0005 300.5791 0002781 257.3393 102.7456 14.98323883 73178,6950.212,96.107,574.01,570.144,0.0
55421.0,STARLINK-5598,PAYLOAD,2024-05-22 12:18:58,14.98330639,0.0002832,70.0005,298.8963,262.5924,97.4914,-6.5941e-05,-8.8e-06,0.0,0 STARLINK-5598,1 55421U 23014AG  24143.51317759 -.00000880  00000-0 -65941-4 0  9996,2 55421  70.0005 298.8963 0002832 262.5924  97.4914 14.98330639 73270,6950.191,96.107,574.024,570.088,0.0
55421.0,STARLINK-5598,PAYLOAD,2024-05-22 20:19:38,14.98331414,0.0002835,70.0006,298.055,263.2869,96.7967,-5.0906e-05,-7e-06,0.0,0 STARLINK-5598,1 55421U 23014AG  24143.84697647 -.00000700  00000-0 -50906-4 0  9995,2 55421  70.0006 298.0550 0002835 263.2869  96.7967 14.98331414 73322,6950.189,96.107,574.024,570.083,0.0
55421.0,STARLINK-5598,PAYLOAD,2024-05-23 12:20:59,14.98328734,0.0002794,70.0007,296.372,262.8344,97.2498,-1.0595e-06,-1.06e-06,0.0,0 STARLINK-5598,1 55421U 23014AG  24144.51457657 -.00000106  00000-0 -10595-5 0  9996,2 55421  70.0007 296.3720 0002794 262.8344  97.2498 14.98328734 73427,6950.197,96.107,574.004,570.12,0.0
55421.0,STARLINK-5598,PAYLOAD,2024-05-23 13:57:07,14.98328589,0.0002799,70.0007,296.2036,262.8765,97.2076,-2.6048e-06,-1.24e-06,0.0,0 STARLINK-5598,1 55421U 23014AG  24144.58133674 -.00000124  00000-0 -26048-5 0  9993,2 55421  70.0007 296.2036 0002799 262.8765  97.2076 14.98328589 73439,6950.197,96.107,574.008,570.117,0.0
55421.0,STARLINK-5598,PAYLOAD,2024-05-23 20:21:39,14.98331492,0.0002755,70.0008,295.5304,262.5452,97.5394,3.1969e-05,2.89e-06,0.0,0 STARLINK-5598,1 55421U 23014AG  24144.84837398  .00000289  00000-0  31969-4 0  9993,2 55421  70.0008 295.5304 0002755 262.5452  97.5394 14.98331492 73479,6950.188,96.107,573.968,570.139,0.0
55421.0,STARLINK-5598,PAYLOAD,2024-05-24 12:23:00,14.98325238,0.0002712,70.0009,293.8464,265.5069,94.578,6.6208e-06,-1.4e-07,0.0,0 STARLINK-5598,1 55421U 23014AG  24145.51597908 -.00000014  00000-0  66208-5 0  9990,2 55421  70.0009 293.8464 0002712 265.5069  94.5780 14.98325238 73576,6950.208,96.107,573.958,570.188,0.0
55421.0,STARLINK-5598,PAYLOAD,2024-05-24 13:59:08,14.98325081,0.0002715,70.0009,293.6781,265.4158,94.6691,4.3529e-06,-4.1e-07,0.0,0 STARLINK-5598,1 55421U 23014AG  24145.58273940 -.00000041  00000-0  43529-5 0  9995,2 55421  70.0009 293.6781 0002715 265.4158  94.6691 14.98325081 73586,6950.208,96.107,573.96,570.186,0.0
55421.0,STARLINK-5598,PAYLOAD,2024-05-24 20:23:40,14.98330927,0.0002909,70.0002,293.0037,269.0733,91.0093,8.9761e-05,9.78e-06,0.0,0 STARLINK-5598,1 55421U 23014AG  24145.84977360  .00000978  00000-0  89761-4 0  9996,2 55421  70.0002 293.0037 0002909 269.0733  91.0093 14.98330927 73628,6950.19,96.107,574.077,570.033,0.0
55421.0,STARLINK-5598,PAYLOAD,2024-05-25 14:01:09,14.98328098,0.0002764,70.0003,291.1511,258.0581,102.0268,1.1345e-05,4.2e-07,0.0,0 STARLINK-5598,1 55421U 23014AG  24146.58413692  .00000042  00000-0  11345-4 0  9996,2 55421  70.0003 291.1511 0002764 258.0581 102.0268 14.98328098 73738,6950.199,96.107,573.985,570.143,0.0
55421.0,STARLINK-5598,PAYLOAD,2024-05-25 18:49:33,14.9832642,0.0002765,70.0005,290.6464,262.1465,97.938,1.4196e-05,7.6e-07,0.0,0 STARLINK-5598,1 55421U 23014AG  24146.78441868  .00000076  00000-0  14196-4 0  9998,2 55421  70.0005 290.6464 0002765 262.1465  97.9380 14.98326420 73766,6950.204,96.107,573.991,570.147,0.0
55421.0,STARLINK-5598,PAYLOAD,2024-05-26 14:03:10,14.98329759,0.0002955,70.0008,288.6272,261.2018,98.8806,2.4311e-05,1.97e-06,0.0,0 STARLINK-5598,1 55421U 23014AG  24147.58553503  .00000197  00000-0  24311-4 0  9991,2 55421  70.0008 288.6272 0002955 261.2018  98.8806 14.98329759 73882,6950.194,96.107,574.112,570.005,0.0
55421.0,STARLINK-5598,PAYLOAD,2024-05-26 18:51:34,14.9833009,0.0003132,70.0008,288.1226,266.3108,93.7693,2.8758e-05,2.5e-06,0.0,0 STARLINK-5598,1 55421U 23014AG  24147.78581478  .00000250  00000-0  28758-4 0  9994,2 55421  70.0008 288.1226 0003132 266.3108  93.7693 14.98330090 73912,6950.193,96.107,574.234,569.881,0.0
55421.0,STARLINK-5598,PAYLOAD,2024-05-27 14:05:11,14.98329087,0.0002829,70.0006,286.1031,262.7112,97.3726,1.2771e-05,5.9e-07,0.0,0 STARLINK-5598,1 55421U 23014AG  24148.58693582  .00000059  00000-0  12771-4 0  9998,2 55421  70.0006 286.1031 0002829 262.7112  97.3726 14.98329087 74034,6950.196,96.107,574.027,570.095,0.0
55421.0,STARLINK-5598,PAYLOAD,2024-05-27 18:53:35,14.98329775,0.0002823,70.0006,285.5982,263.0193,97.0645,1.9621e-05,1.41e-06,0.0,0 STARLINK-5598,1 55421U 23014AG  24148.78721519  .00000141  00000-0  19621-4 0  9995,2 55421  70.0006 285.5982 0002823 263.0193  97.0645 14.98329775 74063,6950.194,96.107,574.021,570.097,0.0
55421.0,STARLINK-5598,PAYLOAD,2024-05-28 12:31:03,14.98333361,0.0002858,70.0006,283.7464,265.2945,94.7887,2.0335e-05,1.5e-06,0.0,0 STARLINK-5598,1 55421U 23014AG  24149.52157186  .00000150  00000-0  20335-4 0  9995,2 55421  70.0006 283.7464 0002858 265.2945  94.7887 14.98333361 74175,6950.182,96.107,574.034,570.061,0.0
55421.0,STARLINK-5598,PAYLOAD,2024-05-28 18:55:35,14.98335416,0.0002829,70.0007,283.0733,264.783,95.3006,4.3095e-05,4.21e-06,0.0,0 STARLINK-5598,1 55421U 23014AG  24149.78860915  .00000421  00000-0  43095-4 0  9993,2 55421  70.0007 283.0733 0002829 264.7830  95.3006 14.98335416 74211,6950.176,96.107,574.007,570.075,0.0
55421.0,STARLINK-5598,PAYLOAD,2024-05-29 14:09:12,14.98331222,0.0002783,70.0009,281.0538,264.5076,95.5766,1.1441e-05,4.4e-07,0.0,0 STARLINK-5598,1 55421U 23014AG  24150.58973088  .00000044  00000-0  11441-4 0  9990,2 55421  70.0009 281.0538 0002783 264.5076  95.5766 14.98331222 74332,6950.189,96.107,573.988,570.12,0.0
55421.0,STARLINK-5598,PAYLOAD,2024-05-29 18:57:37,14.98330109,0.0002818,70.0009,280.5485,265.6225,94.4613,-3.5072e-06,-1.35e-06,0.0,0 STARLINK-5598,1 55421U 23014AG  24150.79001194 -.00000135  00000-0 -35072-5 0  9993,2 55421  70.0009 280.5485 0002818 265.6225  94.4613 14.98330109 74369,6950.193,96.107,574.016,570.099,0.0
